PLib.tleData =
	[[
		"ISS (ZARYA)",
		"1 25544U 98067A   24021.71182883  .00025961  00000+0  46588-3 0  9993",
		"2 25544  51.6422 326.1038 0005061 114.7963 313.6318 15.49714193435683"
	],
	[
		"CSS (TIANHE)",
		"1 48274U 21035A   24021.15725331  .00021832  00000+0  24054-3 0  9995",
		"2 48274  41.4687 267.5057 0007708 210.4659 149.5733 15.62561500155923"
	],
	[
		"LANDSAT 8",
		"1 39084U 13008A   24021.49744851  .00000814  00000+0  19072-3 0  9991",
		"2 39084  98.2028  93.4560 0001050  84.1319 275.9999 14.57125300581905"
	],
	[	
		"RISAT-1  ",
		"1 38248U 12017A   24021.55755284  .00011586  00000+0  53665-3 0  9994",
		"2 38248  97.5340  38.7887 0004832  59.1052 301.0657 15.20250372647146"
	]];
